[
    {
        "Altitude(m)": 604221.1992924054,
        "Argument of Periapsis(deg)": 0.0,
        "Eccentricity": 0.0,
        "Inclination(deg)": 60.0,
        "Latitude(deg)": 14.117217142366378,
        "Longitude(deg)": -136.66583000042024,
        "Mean Anomaly(deg)": 16.363599999999984,
        "RAAN(deg)": 315.0,
        "Satellite Name": "Test1 1387",
        "Satellite Number": 1387,
        "Semi-Major Axis(m)": 6980739.136638005,
        "Time(s)": 0
    },
    {
        "Altitude(m)": 604235.339971694,
        "Argument of Periapsis(deg)": 0.00010418945913296404,
        "Eccentricity": 0.0,
        "Inclination(deg)": 60.0,
        "Latitude(deg)": 14.651613580129577,
        "Longitude(deg)": -136.37738245350883,
        "Mean Anomaly(deg)": 16.983706145461838,
        "RAAN(deg)": 314.99957995086027,
        "Satellite Name": "Test1 1387",
        "Satellite Number": 1387,
        "Semi-Major Axis(m)": 6980739.136638005,
        "Time(s)": 10
    },
    {
        "Altitude(m)": 604252.3777476777,
        "Argument of Periapsis(deg)": 0.0002083789182659281,
        "Eccentricity": 0.0,
        "Inclination(deg)": 60.0,
        "Latitude(deg)": 15.185520204692798,
        "Longitude(deg)": -136.087331908012,
        "Mean Anomaly(deg)": 17.60381229092364,
        "RAAN(deg)": 314.9991599017205,
        "Satellite Name": "Test1 1387",
        "Satellite Number": 1387,
        "Semi-Major Axis(m)": 6980739.136638005,
        "Time(s)": 20
    },
    {
        "Altitude(m)": 604272.2807916786,
        "Argument of Periapsis(deg)": 0.00031256837739889213,
        "Eccentricity": 0.0,
        "Inclination(deg)": 60.0,
        "Latitude(deg)": 15.71891571141476,
        "Longitude(deg)": -135.79561085181905,
        "Mean Anomaly(deg)": 18.223918436385496,
        "RAAN(deg)": 314.9987398525808,
        "Satellite Name": "Test1 1387",
        "Satellite Number": 1387,
        "Semi-Major Axis(m)": 6980739.136638005,
        "Time(s)": 30
    },
    {
        "Altitude(m)": 604295.016000287,
        "Argument of Periapsis(deg)": 0.0004167578365318562,
        "Eccentricity": 0.0,
        "Inclination(deg)": 60.0,
        "Latitude(deg)": 16.251778459936915,
        "Longitude(deg)": -135.50215025021052,
        "Mean Anomaly(deg)": 18.844024581847297,
        "RAAN(deg)": 314.99831980344106,
        "Satellite Name": "Test1 1387",
        "Satellite Number": 1387,
        "Semi-Major Axis(m)": 6980739.136638005,
        "Time(s)": 40
    },
    {
        "Altitude(m)": 604320.5490142917,
        "Argument of Periapsis(deg)": 0.0005209472956648203,
        "Eccentricity": 0.0,
        "Inclination(deg)": 60.0,
        "Latitude(deg)": 16.784086458148806,
        "Longitude(deg)": -135.20688051027594,
        "Mean Anomaly(deg)": 19.46413072730915,
        "RAAN(deg)": 314.9978997543013,
        "Satellite Name": "Test1 1387",
        "Satellite Number": 1387,
        "Semi-Major Axis(m)": 6980739.136638005,
        "Time(s)": 50
    },
    {
        "Altitude(m)": 604348.8442382119,
        "Argument of Periapsis(deg)": 0.0006251367547977843,
        "Eccentricity": 0.0,
        "Inclination(deg)": 60.0,
        "Latitude(deg)": 17.31581734566762,
        "Longitude(deg)": -134.90973093160693,
        "Mean Anomaly(deg)": 20.084236872771,
        "RAAN(deg)": 314.99747970516154,
        "Satellite Name": "Test1 1387",
        "Satellite Number": 1387,
        "Semi-Major Axis(m)": 6980739.136638005,
        "Time(s)": 60
    },
    {
        "Altitude(m)": 604379.8648603979,
        "Argument of Periapsis(deg)": 0.0007293262139307483,
        "Eccentricity": 0.0,
        "Inclination(deg)": 60.0,
        "Latitude(deg)": 17.84694837681175,
        "Longitude(deg)": -134.61062915610944,
        "Mean Anomaly(deg)": 20.704343018232805,
        "RAAN(deg)": 314.9970596560218,
        "Satellite Name": "Test1 1387",
        "Satellite Number": 1387,
        "Semi-Major Axis(m)": 6980739.136638005,
        "Time(s)": 70
    },
    {
        "Altitude(m)": 604413.5728737136,
        "Argument of Periapsis(deg)": 0.0008335156730637124,
        "Eccentricity": 0.0,
        "Inclination(deg)": 60.0,
        "Latitude(deg)": 18.377456403046217,
        "Longitude(deg)": -134.30950212978632,
        "Mean Anomaly(deg)": 21.32444916369466,
        "RAAN(deg)": 314.99663960688207,
        "Satellite Name": "Test1 1387",
        "Satellite Number": 1387,
        "Semi-Major Axis(m)": 6980739.136638005,
        "Time(s)": 80
    },
    {
        "Altitude(m)": 604449.9290967773,
        "Argument of Periapsis(deg)": 0.0009377051321966765,
        "Eccentricity": 0.0,
        "Inclination(deg)": 60.0,
        "Latitude(deg)": 18.90731785487045,
        "Longitude(deg)": -134.00627555072018,
        "Mean Anomaly(deg)": 21.94455530915646,
        "RAAN(deg)": 314.99621955774234,
        "Satellite Name": "Test1 1387",
        "Satellite Number": 1387,
        "Semi-Major Axis(m)": 6980739.136638005,
        "Time(s)": 90
    },
    {
        "Altitude(m)": 604488.8931957701,
        "Argument of Periapsis(deg)": 0.0010418945913296407,
        "Eccentricity": 0.0,
        "Inclination(deg)": 60.0,
        "Latitude(deg)": 19.436508723126106,
        "Longitude(deg)": -133.70087331610793,
        "Mean Anomaly(deg)": 22.564661454618314,
        "RAAN(deg)": 314.99579950860254,
        "Satellite Name": "Test1 1387",
        "Satellite Number": 1387,
        "Semi-Major Axis(m)": 6980739.136638005,
        "Time(s)": 100
    },
    {
        "Altitude(m)": 604530.4237067616,
        "Argument of Periapsis(deg)": 0.0011460840504626045,
        "Eccentricity": 0.0,
        "Inclination(deg)": 60.0,
        "Latitude(deg)": 19.965004539699486,
        "Longitude(deg)": -133.39321848120105,
        "Mean Anomaly(deg)": 23.184767600080114,
        "RAAN(deg)": 314.99537945946287,
        "Satellite Name": "Test1 1387",
        "Satellite Number": 1387,
        "Semi-Major Axis(m)": 6980739.136638005,
        "Time(s)": 110
    },
    {
        "Altitude(m)": 604574.478058571,
        "Argument of Periapsis(deg)": 0.0012502735095955685,
        "Eccentricity": 0.0,
        "Inclination(deg)": 60.0,
        "Latitude(deg)": 20.49278035758871,
        "Longitude(deg)": -133.08323270438623,
        "Mean Anomaly(deg)": 23.80487374554197,
        "RAAN(deg)": 314.99495941032313,
        "Satellite Name": "Test1 1387",
        "Satellite Number": 1387,
        "Semi-Major Axis(m)": 6980739.136638005,
        "Time(s)": 120
    },
    {
        "Altitude(m)": 604621.0125961532,
        "Argument of Periapsis(deg)": 0.0013544629687285324,
        "Eccentricity": 0.0,
        "Inclination(deg)": 60.0,
        "Latitude(deg)": 21.01981073030828,
        "Longitude(deg)": -132.77083569126495,
        "Mean Anomaly(deg)": 24.424979891003822,
        "RAAN(deg)": 314.99453936118334,
        "Satellite Name": "Test1 1387",
        "Satellite Number": 1387,
        "Semi-Major Axis(m)": 6980739.136638005,
        "Time(s)": 130
    },
    {
        "Altitude(m)": 604669.9826044716,
        "Argument of Periapsis(deg)": 0.0014586524278614966,
        "Eccentricity": 0.0,
        "Inclination(deg)": 60.0,
        "Latitude(deg)": 21.546069690605925,
        "Longitude(deg)": -132.4559461505902,
        "Mean Anomaly(deg)": 25.045086036465623,
        "RAAN(deg)": 314.9941193120436,
        "Satellite Name": "Test1 1387",
        "Satellite Number": 1387,
        "Semi-Major Axis(m)": 6980739.136638005,
        "Time(s)": 140
    },
    {
        "Altitude(m)": 604721.3423328731,
        "Argument of Periapsis(deg)": 0.0015628418869944607,
        "Eccentricity": 0.0,
        "Inclination(deg)": 60.0,
        "Latitude(deg)": 22.071530728457045,
        "Longitude(deg)": -132.13848123630476,
        "Mean Anomaly(deg)": 25.665192181927477,
        "RAAN(deg)": 314.9936992629039,
        "Satellite Name": "Test1 1387",
        "Satellite Number": 1387,
        "Semi-Major Axis(m)": 6980739.136638005,
        "Time(s)": 150
    },
    {
        "Altitude(m)": 604775.0450199171,
        "Argument of Periapsis(deg)": 0.0016670313461274247,
        "Eccentricity": 0.0,
        "Inclination(deg)": 60.0,
        "Latitude(deg)": 22.596166768308578,
        "Longitude(deg)": -131.8183559885468,
        "Mean Anomaly(deg)": 26.285298327389278,
        "RAAN(deg)": 314.99327921376414,
        "Satellite Name": "Test1 1387",
        "Satellite Number": 1387,
        "Semi-Major Axis(m)": 6980739.136638005,
        "Time(s)": 160
    },
    {
        "Altitude(m)": 604831.0429186951,
        "Argument of Periapsis(deg)": 0.0017712208052603888,
        "Eccentricity": 0.0,
        "Inclination(deg)": 60.0,
        "Latitude(deg)": 23.119950145543605,
        "Longitude(deg)": -131.49548428649015,
        "Mean Anomaly(deg)": 26.90540447285113,
        "RAAN(deg)": 314.9928591646244,
        "Satellite Name": "Test1 1387",
        "Satellite Number": 1387,
        "Semi-Major Axis(m)": 6980739.136638005,
        "Time(s)": 170
    },
    {
        "Altitude(m)": 604889.2873225727,
        "Argument of Periapsis(deg)": 0.001875410264393353,
        "Eccentricity": 0.0,
        "Inclination(deg)": 60.0,
        "Latitude(deg)": 23.6428525821295,
        "Longitude(deg)": -131.16977828727573,
        "Mean Anomaly(deg)": 27.525510618312932,
        "RAAN(deg)": 314.9924391154846,
        "Satellite Name": "Test1 1387",
        "Satellite Number": 1387,
        "Semi-Major Axis(m)": 6980739.136638005,
        "Time(s)": 180
    },
    {
        "Altitude(m)": 604949.7285913867,
        "Argument of Periapsis(deg)": 0.0019795997235263173,
        "Eccentricity": 0.0,
        "Inclination(deg)": 60.0,
        "Latitude(deg)": 24.164845161419795,
        "Longitude(deg)": -130.84114786390975,
        "Mean Anomaly(deg)": 28.14561676377479,
        "RAAN(deg)": 314.99201906634494,
        "Satellite Name": "Test1 1387",
        "Satellite Number": 1387,
        "Semi-Major Axis(m)": 6980739.136638005,
        "Time(s)": 190
    }
]